ISS (ZARYA)             
1 25544U 98067A   25302.48953544  .00013618  00000+0  24977-3 0  9994
2 25544  51.6347   1.5519 0004808 353.3325   6.7599 15.49579513535999
CSS (TIANHE)            
1 48274U 21035A   25302.20706546  .00041109  00000+0  47775-3 0  9995
2 48274  41.4665 287.2021 0010603 303.7055  56.2773 15.60898372257078
ISS (NAUKA)             
1 49044U 21066A   25301.52216109  .00016210  00000+0  29595-3 0  9995
2 49044  51.6346   6.3420 0004739 349.4592  10.6297 15.49553329230446
FREGAT DEB              
1 49271U 11037PF  25302.27346943  .00001670  00000+0  36545-2 0  9993
2 49271  51.6268 330.9120 0892512 127.8837 240.6193 12.33757355196444
CSS (WENTIAN)           
1 53239U 22085A   25301.24730781  .00036535  00000+0  42648-3 0  9990
2 53239  41.4667 293.0437 0010782 297.7398  62.2347 15.60823296173842
CSS (MENGTIAN)          
1 54216U 22143A   25301.24730781  .00036535  00000+0  42648-3 0  9991
2 54216  41.4667 293.0437 0010782 297.7398  62.2347 15.60823296158649
SOYUZ-MS 27             
1 63520U 25072A   25301.52216109  .00016210  00000+0  29595-3 0  9991
2 63520  51.6346   6.3420 0004739 349.4592  10.6297 15.49553329 20202
SHENZHOU-20 (SZ-20)     
1 63632U 25082A   25301.24730781  .00036535  00000+0  42648-3 0  9998
2 63632  41.4667 293.0437 0010782 297.7398  62.2347 15.60823296255302
PROGRESS-MS 31          
1 64751U 25146A   25301.52216109  .00016210  00000+0  29595-3 0  9990
2 64751  51.6346   6.3420 0004739 349.4592  10.6297 15.49553329  6753
TIANZHOU-9              
1 64786U 25149A   25301.24730781  .00036535  00000+0  42648-3 0  9993
2 64786  41.4667 293.0437 0010782 297.7398  62.2347 15.60823296255303
CREW DRAGON 11          
1 65077U 25166A   25301.52216109  .00016210  00000+0  29595-3 0  9994
2 65077  51.6346   6.3420 0004739 349.4592  10.6297 15.49553329  2144
DRAGON CRS-33           
1 65304U 25186A   25301.52216109  .00016210  00000+0  29595-3 0  9999
2 65304  51.6346   6.3420 0004739 349.4592  10.6297 15.49553329   112
